{"type": "FeatureCollection", "features": [{"type": "Feature", "properties": {"norad_id": 26766, "name": "INTELSAT 10 (IS-10)", "group": "intelsat", "lat": -8.000075187171237, "lon": -51.216208792126835, "alt_km": 36094.58627513168, "timestamp": "2025-12-12T05:47:28.439382+00:00", "meta": {"OBJECT_NAME": "INTELSAT 10 (IS-10)", "OBJECT_ID": "2001-019A", "EPOCH": "2025-12-11T14:11:41.135712", "MEAN_MOTION": 0.99078808, "ECCENTRICITY": 0.00077853, "INCLINATION": 8.6274, "RA_OF_ASC_NODE": 61.1692, "ARG_OF_PERICENTER": 224.4537, "MEAN_ANOMALY": 151.554, "EPHEMERIS_TYPE": 0, "CLASSIFICATION_TYPE": "U", "NORAD_CAT_ID": 26766, "ELEMENT_SET_NO": 999, "REV_AT_EPOCH": 4372, "BSTAR": 0, "MEAN_MOTION_DOT": -2.86e-06, "MEAN_MOTION_DDOT": 0}, "tle": {"line1": "1 26766U 01019A   25345.59144833 -.00000286  00000+0  00000+0 0  9999", "line2": "2 26766   8.6274  61.1692 0007785 224.4537 151.5540  0.99078808 43721"}}, "geometry": {"type": "Point", "coordinates": [-51.216208792126835, -8.000075187171237]}}, {"type": "Feature", "properties": {"norad_id": 26900, "name": "INTELSAT 902 (IS-902)", "group": "intelsat", "lat": 3.921779787305754, "lon": 117.78894545957334, "alt_km": 35800.07426543632, "timestamp": "2025-12-12T05:47:28.439406+00:00", "meta": {"OBJECT_NAME": "INTELSAT 902 (IS-902)", "OBJECT_ID": "2001-039A", "EPOCH": "2025-12-11T04:42:42.842016", "MEAN_MOTION": 1.00272526, "ECCENTRICITY": 0.00044264, "INCLINATION": 5.6424, "RA_OF_ASC_NODE": 74.0881, "ARG_OF_PERICENTER": 184.9809, "MEAN_ANOMALY": 201.6699, "EPHEMERIS_TYPE": 0, "CLASSIFICATION_TYPE": "U", "NORAD_CAT_ID": 26900, "ELEMENT_SET_NO": 999, "REV_AT_EPOCH": 8881, "BSTAR": 0, "MEAN_MOTION_DOT": -2.78e-06, "MEAN_MOTION_DDOT": 0}, "tle": {"line1": "1 26900U 01039A   25345.19632919 -.00000278  00000+0  00000+0 0  9995", "line2": "2 26900   5.6424  74.0881 0004426 184.9809 201.6699  1.00272526 88816"}}, "geometry": {"type": "Point", "coordinates": [117.78894545957334, 3.921779787305754]}}, {"type": "Feature", "properties": {"norad_id": 27380, "name": "INTELSAT 904 (IS-904)", "group": "intelsat", "lat": 5.862244800180687, "lon": 136.40753321524983, "alt_km": 35791.03853122447, "timestamp": "2025-12-12T05:47:28.439421+00:00", "meta": {"OBJECT_NAME": "INTELSAT 904 (IS-904)", "OBJECT_ID": "2002-007A", "EPOCH": "2025-12-11T15:04:21.093888", "MEAN_MOTION": 1.00272838, "ECCENTRICITY": 0.00015232, "INCLINATION": 6.4523, "RA_OF_ASC_NODE": 71.4451, "ARG_OF_PERICENTER": 223.2584, "MEAN_ANOMALY": 340.4619, "EPHEMERIS_TYPE": 0, "CLASSIFICATION_TYPE": "U", "NORAD_CAT_ID": 27380, "ELEMENT_SET_NO": 999, "REV_AT_EPOCH": 4988, "BSTAR": 0, "MEAN_MOTION_DOT": -2.19e-06, "MEAN_MOTION_DDOT": 0}, "tle": {"line1": "1 27380U 02007A   25345.62802192 -.00000219  00000+0  00000+0 0  9999", "line2": "2 27380   6.4523  71.4451 0001523 223.2584 340.4619  1.00272838 49888"}}, "geometry": {"type": "Point", "coordinates": [136.40753321524983, 5.862244800180687]}}, {"type": "Feature", "properties": {"norad_id": 27426, "name": "DIRECTV 5 (TEMPO 1)", "group": "intelsat", "lat": -1.4649501827768134, "lon": 58.00813310653077, "alt_km": 35798.54137906042, "timestamp": "2025-12-12T05:47:28.439435+00:00", "meta": {"OBJECT_NAME": "DIRECTV 5 (TEMPO 1)", "OBJECT_ID": "2002-023A", "EPOCH": "2025-12-11T16:24:43.396704", "MEAN_MOTION": 1.00271902, "ECCENTRICITY": 0.00035071, "INCLINATION": 4.3998, "RA_OF_ASC_NODE": 77.665, "ARG_OF_PERICENTER": 194.3782, "MEAN_ANOMALY": 304.6537, "EPHEMERIS_TYPE": 0, "CLASSIFICATION_TYPE": "U", "NORAD_CAT_ID": 27426, "ELEMENT_SET_NO": 999, "REV_AT_EPOCH": 8624, "BSTAR": 0, "MEAN_MOTION_DOT": -5e-07, "MEAN_MOTION_DDOT": 0}, "tle": {"line1": "1 27426U 02023A   25345.68383561 -.00000050  00000+0  00000+0 0  9991", "line2": "2 27426   4.3998  77.6650 0003507 194.3782 304.6537  1.00271902 86246"}}, "geometry": {"type": "Point", "coordinates": [58.00813310653077, -1.4649501827768134]}}, {"type": "Feature", "properties": {"norad_id": 27438, "name": "INTELSAT 905 (IS-905)", "group": "intelsat", "lat": -4.12131594724548, "lon": 31.057508094627643, "alt_km": 35792.57012772422, "timestamp": "2025-12-12T05:47:28.439447+00:00", "meta": {"OBJECT_NAME": "INTELSAT 905 (IS-905)", "OBJECT_ID": "2002-027A", "EPOCH": "2025-12-11T12:11:37.320576", "MEAN_MOTION": 1.00272852, "ECCENTRICITY": 0.00027503, "INCLINATION": 6.283, "RA_OF_ASC_NODE": 72.0704, "ARG_OF_PERICENTER": 196.0234, "MEAN_ANOMALY": 218.0777, "EPHEMERIS_TYPE": 0, "CLASSIFICATION_TYPE": "U", "NORAD_CAT_ID": 27438, "ELEMENT_SET_NO": 999, "REV_AT_EPOCH": 4948, "BSTAR": 0, "MEAN_MOTION_DOT": 1e-06, "MEAN_MOTION_DDOT": 0}, "tle": {"line1": "1 27438U 02027A   25345.50807084  .00000100  00000+0  00000+0 0  9995", "line2": "2 27438   6.2830  72.0704 0002750 196.0234 218.0777  1.00272852 49488"}}, "geometry": {"type": "Point", "coordinates": [31.057508094627643, -4.12131594724548]}}, {"type": "Feature", "properties": {"norad_id": 27445, "name": "GALAXY 3C (G-3C)", "group": "intelsat", "lat": -0.39751812341018933, "lon": 73.19123671558087, "alt_km": 35786.90306966855, "timestamp": "2025-12-12T05:47:28.439478+00:00", "meta": {"OBJECT_NAME": "GALAXY 3C (G-3C)", "OBJECT_ID": "2002-030A", "EPOCH": "2025-12-11T23:19:58.162944", "MEAN_MOTION": 1.00271461, "ECCENTRICITY": 0.00011057, "INCLINATION": 3.2625, "RA_OF_ASC_NODE": 80.515, "ARG_OF_PERICENTER": 90.8442, "MEAN_ANOMALY": 164.6949, "EPHEMERIS_TYPE": 0, "CLASSIFICATION_TYPE": "U", "NORAD_CAT_ID": 27445, "ELEMENT_SET_NO": 999, "REV_AT_EPOCH": 4461, "BSTAR": 0, "MEAN_MOTION_DOT": -1.44e-06, "MEAN_MOTION_DDOT": 0}, "tle": {"line1": "1 27445U 02030A   25345.97220096 -.00000144  00000+0  00000+0 0  9999", "line2": "2 27445   3.2625  80.5150 0001105  90.8442 164.6949  1.00271461 44611"}}, "geometry": {"type": "Point", "coordinates": [73.19123671558087, -0.39751812341018933]}}, {"type": "Feature", "properties": {"norad_id": 27513, "name": "INTELSAT 906 (IS-906)", "group": "intelsat", "lat": 2.0700535979475543, "lon": -127.76091878490678, "alt_km": 35764.54828351441, "timestamp": "2025-12-12T05:47:28.439491+00:00", "meta": {"OBJECT_NAME": "INTELSAT 906 (IS-906)", "OBJECT_ID": "2002-041A", "EPOCH": "2025-12-11T20:06:53.261280", "MEAN_MOTION": 1.00271417, "ECCENTRICITY": 0.00061629, "INCLINATION": 5.3265, "RA_OF_ASC_NODE": 75.242, "ARG_OF_PERICENTER": 192.0283, "MEAN_ANOMALY": 179.375, "EPHEMERIS_TYPE": 0, "CLASSIFICATION_TYPE": "U", "NORAD_CAT_ID": 27513, "ELEMENT_SET_NO": 999, "REV_AT_EPOCH": 8515, "BSTAR": 0, "MEAN_MOTION_DOT": 2.1e-07, "MEAN_MOTION_DDOT": 0}, "tle": {"line1": "1 27513U 02041A   25345.83811645  .00000021  00000+0  00000+0 0  9991", "line2": "2 27513   5.3265  75.2420 0006162 192.0283 179.3750  1.00271417 85155"}}, "geometry": {"type": "Point", "coordinates": [-127.76091878490678, 2.0700535979475543]}}, {"type": "Feature", "properties": {"norad_id": 27954, "name": "GALAXY 13 (HORIZONS-1)", "group": "intelsat", "lat": -0.8563603313867689, "lon": 18.072394646103014, "alt_km": 35791.314753005754, "timestamp": "2025-12-12T05:47:28.439503+00:00", "meta": {"OBJECT_NAME": "GALAXY 13 (HORIZONS-1)", "OBJECT_ID": "2003-044A", "EPOCH": "2025-12-11T17:56:04.648128", "MEAN_MOTION": 1.00271098, "ECCENTRICITY": 0.00020423, "INCLINATION": 0.933, "RA_OF_ASC_NODE": 86.4823, "ARG_OF_PERICENTER": 166.2979, "MEAN_ANOMALY": 306.9395, "EPHEMERIS_TYPE": 0, "CLASSIFICATION_TYPE": "U", "NORAD_CAT_ID": 27954, "ELEMENT_SET_NO": 999, "REV_AT_EPOCH": 4469, "BSTAR": 0, "MEAN_MOTION_DOT": 1.41e-06, "MEAN_MOTION_DDOT": 0}, "tle": {"line1": "1 27954U 03044A   25345.74727602  .00000141  00000+0  00000+0 0  9996", "line2": "2 27954   0.9330  86.4823 0002042 166.2979 306.9395  1.00271098 44699"}}, "geometry": {"type": "Point", "coordinates": [18.072394646103014, -0.8563603313867689]}}, {"type": "Feature", "properties": {"norad_id": 28358, "name": "INTELSAT 10-02", "group": "intelsat", "lat": 0.015419166255417024, "lon": 167.07973197497944, "alt_km": 35789.58584677485, "timestamp": "2025-12-12T05:47:28.439516+00:00", "meta": {"OBJECT_NAME": "INTELSAT 10-02", "OBJECT_ID": "2004-022A", "EPOCH": "2025-12-11T22:04:03.397728", "MEAN_MOTION": 1.00271494, "ECCENTRICITY": 0.00012098, "INCLINATION": 0.0228, "RA_OF_ASC_NODE": 63.4531, "ARG_OF_PERICENTER": 236.1974, "MEAN_ANOMALY": 111.2735, "EPHEMERIS_TYPE": 0, "CLASSIFICATION_TYPE": "U", "NORAD_CAT_ID": 28358, "ELEMENT_SET_NO": 999, "REV_AT_EPOCH": 7867, "BSTAR": 0, "MEAN_MOTION_DOT": -2e-08, "MEAN_MOTION_DDOT": 0}, "tle": {"line1": "1 28358U 04022A   25345.91948377 -.00000002  00000+0  00000+0 0  9992", "line2": "2 28358   0.0228  63.4531 0001209 236.1974 111.2735  1.00271494 78672"}}, "geometry": {"type": "Point", "coordinates": [167.07973197497944, 0.015419166255417024]}}, {"type": "Feature", "properties": {"norad_id": 28626, "name": "XM-3 (RHYTHM)", "group": "intelsat", "lat": -0.08336046051929259, "lon": -75.27023183453657, "alt_km": 36157.401281340106, "timestamp": "2025-12-12T05:47:28.439527+00:00", "meta": {"OBJECT_NAME": "XM-3 (RHYTHM)", "OBJECT_ID": "2005-008A", "EPOCH": "2025-12-11T22:38:00.148128", "MEAN_MOTION": 0.98952782, "ECCENTRICITY": 0.00015113, "INCLINATION": 0.1728, "RA_OF_ASC_NODE": 81.4536, "ARG_OF_PERICENTER": 269.1876, "MEAN_ANOMALY": 187.8641, "EPHEMERIS_TYPE": 0, "CLASSIFICATION_TYPE": "U", "NORAD_CAT_ID": 28626, "ELEMENT_SET_NO": 999, "REV_AT_EPOCH": 4074, "BSTAR": 0, "MEAN_MOTION_DOT": -1.75e-06, "MEAN_MOTION_DDOT": 0}, "tle": {"line1": "1 28626U 05008A   25345.94305727 -.00000175  00000+0  00000+0 0  9995", "line2": "2 28626   0.1728  81.4536 0001511 269.1876 187.8641  0.98952782 40748"}}, "geometry": {"type": "Point", "coordinates": [-75.27023183453657, -0.08336046051929259]}}]}